STARLINK-33675          
1 63423U 25065AA  26050.44566133  .00022269  00000+0  81526-3 0  9996
2 63423  42.9999 209.7129 0001247 239.5827 120.4901 15.27622124 50051
STARLINK-33655          
1 63424U 25065AB  26050.50091303  .00033893  00000+0  12342-2 0  9990
2 63424  42.9895 210.1086 0003299 163.9891 196.1065 15.27610728 50053
STARLINK-33608          
1 63425U 25065AC  26050.80215343  .00020018  00000+0  73476-3 0  9997
2 63425  43.0000 208.0766 0001667 280.9182  79.1482 15.27590118 50104
STARLINK-33615          
1 63426U 25065AD  26050.43168185  .00032215  00000+0  11750-2 0  9996
2 63426  43.0010 210.4764 0001266 263.9199  96.1508 15.27584108 50048
STARLINK-33682          
1 63433U 25069A   26050.85584616  .00030667  00000+0  10430-2 0  9998
2 63433  53.1571 225.3614 0000961  97.5601 262.5509 15.30208334 50676
STARLINK-33710          
1 63434U 25069B   26050.80740159  .00023464  00000+0  80147-3 0  9990
2 63434  53.1599 225.7676 0000832  95.9759 264.1337 15.30215761 50660
STARLINK-33733          
1 63435U 25069C   26050.86955330  .00021711  00000+0  74250-3 0  9997
2 63435  53.1599 225.4493 0001454  60.3766 299.7380 15.30221840 50678
STARLINK-33638          
1 63436U 25069D   26050.80106797  .00022353  00000+0  76432-3 0  9994
2 63436  53.1598 225.7247 0001296 147.0460 213.0622 15.30210672 50664
STARLINK-33726          
1 63437U 25069E   26050.79580517  .00024684  00000+0  84186-3 0  9993
2 63437  53.1579 225.6949 0001402  95.6079 264.5082 15.30234371 50613
STARLINK-33681          
1 63438U 25069F   26050.85374086  .00019803  00000+0  68051-3 0  9993
2 63438  53.1568 225.3543 0001971  62.9876 297.1326 15.30124682 50674
STARLINK-33730          
1 63439U 25069G   26050.76202481  .00026288  00000+0  89649-3 0  9994
2 63439  53.1575 225.4831 0000819  68.6109 291.4979 15.30202285 50662
STARLINK-33743          
1 63440U 25069H   26050.79789482  .00024468  00000+0  83525-3 0  9995
2 63440  53.1588 225.7070 0001944 169.3020 190.8022 15.30209467 50555
STARLINK-33715          
1 63441U 25069J   26050.79473487  .00026302  00000+0  89657-3 0  9992
2 63441  53.1592 225.6774 0001501 150.2757 209.8329 15.30216484 50666
STARLINK-33762          
1 63442U 25069K   26050.85794243  .00031847  00000+0  10824-2 0  9995
2 63442  53.1582 225.3723 0000987  93.8387 266.2726 15.30210693 50670
STARLINK-33753          
1 63443U 25069L   26050.91270640  .00028797  00000+0  98060-3 0  9992
2 63443  53.1568 225.0042 0001158  74.8395 285.2734 15.30201451 50677
STARLINK-33747          
1 63444U 25069M   26050.77575774  .00030682  00000+0  10454-2 0  9999
2 63444  53.1575 225.5697 0001439 137.8575 222.2537 15.30149372 50618
