[{"OBJECT_NAME":"STARLINK-33675","OBJECT_ID":"2025-065AA","EPOCH":"2026-02-19T10:41:45.138912","MEAN_MOTION":15.27622124,"ECCENTRICITY":0.0001247,"INCLINATION":42.9999,"RA_OF_ASC_NODE":209.7129,"ARG_OF_PERICENTER":239.5827,"MEAN_ANOMALY":120.4901,"EPHEMERIS_TYPE":0,"CLASSIFICATION_TYPE":"U","NORAD_CAT_ID":63423,"ELEMENT_SET_NO":999,"REV_AT_EPOCH":5005,"BSTAR":0.00081526485,"MEAN_MOTION_DOT":0.00022269,"MEAN_MOTION_DDOT":0},{"OBJECT_NAME":"STARLINK-33655","OBJECT_ID":"2025-065AB","EPOCH":"2026-02-19T12:01:18.885792","MEAN_MOTION":15.27610728,"ECCENTRICITY":0.00032994,"INCLINATION":42.9895,"RA_OF_ASC_NODE":210.1086,"ARG_OF_PERICENTER":163.9891,"MEAN_ANOMALY":196.1065,"EPHEMERIS_TYPE":0,"CLASSIFICATION_TYPE":"U","NORAD_CAT_ID":63424,"ELEMENT_SET_NO":999,"REV_AT_EPOCH":5005,"BSTAR":0.0012342403,"MEAN_MOTION_DOT":0.00033893,"MEAN_MOTION_DDOT":0},{"OBJECT_NAME":"STARLINK-33608","OBJECT_ID":"2025-065AC","EPOCH":"2026-02-19T19:15:06.056352","MEAN_MOTION":15.27590118,"ECCENTRICITY":0.00016674,"INCLINATION":43,"RA_OF_ASC_NODE":208.0766,"ARG_OF_PERICENTER":280.9182,"MEAN_ANOMALY":79.1482,"EPHEMERIS_TYPE":0,"CLASSIFICATION_TYPE":"U","NORAD_CAT_ID":63425,"ELEMENT_SET_NO":999,"REV_AT_EPOCH":5010,"BSTAR":0.00073476494,"MEAN_MOTION_DOT":0.00020018,"MEAN_MOTION_DDOT":0},{"OBJECT_NAME":"STARLINK-33615","OBJECT_ID":"2025-065AD","EPOCH":"2026-02-19T10:21:37.311840","MEAN_MOTION":15.27584108,"ECCENTRICITY":0.00012666,"INCLINATION":43.001,"RA_OF_ASC_NODE":210.4764,"ARG_OF_PERICENTER":263.9199,"MEAN_ANOMALY":96.1508,"EPHEMERIS_TYPE":0,"CLASSIFICATION_TYPE":"U","NORAD_CAT_ID":63426,"ELEMENT_SET_NO":999,"REV_AT_EPOCH":5004,"BSTAR":0.0011749554,"MEAN_MOTION_DOT":0.00032215,"MEAN_MOTION_DDOT":0},{"OBJECT_NAME":"STARLINK-33682","OBJECT_ID":"2025-069A","EPOCH":"2026-02-19T20:32:25.108224","MEAN_MOTION":15.30208334,"ECCENTRICITY":9.617e-5,"INCLINATION":53.1571,"RA_OF_ASC_NODE":225.3614,"ARG_OF_PERICENTER":97.5601,"MEAN_ANOMALY":262.5509,"EPHEMERIS_TYPE":0,"CLASSIFICATION_TYPE":"U","NORAD_CAT_ID":63433,"ELEMENT_SET_NO":999,"REV_AT_EPOCH":5067,"BSTAR":0.0010429869,"MEAN_MOTION_DOT":0.00030667,"MEAN_MOTION_DDOT":0},{"OBJECT_NAME":"STARLINK-33710","OBJECT_ID":"2025-069B","EPOCH":"2026-02-19T19:22:39.497376","MEAN_MOTION":15.30215761,"ECCENTRICITY":8.326e-5,"INCLINATION":53.1599,"RA_OF_ASC_NODE":225.7676,"ARG_OF_PERICENTER":95.9759,"MEAN_ANOMALY":264.1337,"EPHEMERIS_TYPE":0,"CLASSIFICATION_TYPE":"U","NORAD_CAT_ID":63434,"ELEMENT_SET_NO":999,"REV_AT_EPOCH":5066,"BSTAR":0.00080146545,"MEAN_MOTION_DOT":0.00023464,"MEAN_MOTION_DDOT":0},{"OBJECT_NAME":"STARLINK-33733","OBJECT_ID":"2025-069C","EPOCH":"2026-02-19T20:52:09.405120","MEAN_MOTION":15.3022184,"ECCENTRICITY":0.00014547,"INCLINATION":53.1599,"RA_OF_ASC_NODE":225.4493,"ARG_OF_PERICENTER":60.3766,"MEAN_ANOMALY":299.738,"EPHEMERIS_TYPE":0,"CLASSIFICATION_TYPE":"U","NORAD_CAT_ID":63435,"ELEMENT_SET_NO":999,"REV_AT_EPOCH":5067,"BSTAR":0.00074249721,"MEAN_MOTION_DOT":0.00021711,"MEAN_MOTION_DDOT":0},{"OBJECT_NAME":"STARLINK-33638","OBJECT_ID":"2025-069D","EPOCH":"2026-02-19T19:13:32.272608","MEAN_MOTION":15.30210672,"ECCENTRICITY":0.00012969,"INCLINATION":53.1598,"RA_OF_ASC_NODE":225.7247,"ARG_OF_PERICENTER":147.046,"MEAN_ANOMALY":213.0622,"EPHEMERIS_TYPE":0,"CLASSIFICATION_TYPE":"U","NORAD_CAT_ID":63436,"ELEMENT_SET_NO":999,"REV_AT_EPOCH":5066,"BSTAR":0.00076431593,"MEAN_MOTION_DOT":0.00022353,"MEAN_MOTION_DDOT":0},{"OBJECT_NAME":"STARLINK-33726","OBJECT_ID":"2025-069E","EPOCH":"2026-02-19T19:05:57.566688","MEAN_MOTION":15.30234371,"ECCENTRICITY":0.00014021,"INCLINATION":53.1579,"RA_OF_ASC_NODE":225.6949,"ARG_OF_PERICENTER":95.6079,"MEAN_ANOMALY":264.5082,"EPHEMERIS_TYPE":0,"CLASSIFICATION_TYPE":"U","NORAD_CAT_ID":63437,"ELEMENT_SET_NO":999,"REV_AT_EPOCH":5061,"BSTAR":0.00084185664,"MEAN_MOTION_DOT":0.00024684,"MEAN_MOTION_DDOT":0},{"OBJECT_NAME":"STARLINK-33681","OBJECT_ID":"2025-069F","EPOCH":"2026-02-19T20:29:23.210304","MEAN_MOTION":15.30124682,"ECCENTRICITY":0.00019714,"INCLINATION":53.1568,"RA_OF_ASC_NODE":225.3543,"ARG_OF_PERICENTER":62.9876,"MEAN_ANOMALY":297.1326,"EPHEMERIS_TYPE":0,"CLASSIFICATION_TYPE":"U","NORAD_CAT_ID":63438,"ELEMENT_SET_NO":999,"REV_AT_EPOCH":5067,"BSTAR":0.00068051113,"MEAN_MOTION_DOT":0.00019803,"MEAN_MOTION_DDOT":0},{"OBJECT_NAME":"STARLINK-33730","OBJECT_ID":"2025-069G","EPOCH":"2026-02-19T18:17:18.943584","MEAN_MOTION":15.30202285,"ECCENTRICITY":8.193e-5,"INCLINATION":53.1575,"RA_OF_ASC_NODE":225.4831,"ARG_OF_PERICENTER":68.6109,"MEAN_ANOMALY":291.4979,"EPHEMERIS_TYPE":0,"CLASSIFICATION_TYPE":"U","NORAD_CAT_ID":63439,"ELEMENT_SET_NO":999,"REV_AT_EPOCH":5066,"BSTAR":0.00089648544,"MEAN_MOTION_DOT":0.00026288,"MEAN_MOTION_DDOT":0},{"OBJECT_NAME":"STARLINK-33743","OBJECT_ID":"2025-069H","EPOCH":"2026-02-19T19:08:58.112448","MEAN_MOTION":15.30209467,"ECCENTRICITY":0.00019441,"INCLINATION":53.1588,"RA_OF_ASC_NODE":225.707,"ARG_OF_PERICENTER":169.302,"MEAN_ANOMALY":190.8022,"EPHEMERIS_TYPE":0,"CLASSIFICATION_TYPE":"U","NORAD_CAT_ID":63440,"ELEMENT_SET_NO":999,"REV_AT_EPOCH":5055,"BSTAR":0.00083524859,"MEAN_MOTION_DOT":0.00024468,"MEAN_MOTION_DDOT":0},{"OBJECT_NAME":"STARLINK-33715","OBJECT_ID":"2025-069J","EPOCH":"2026-02-19T19:04:25.092768","MEAN_MOTION":15.30216484,"ECCENTRICITY":0.00015014,"INCLINATION":53.1592,"RA_OF_ASC_NODE":225.6774,"ARG_OF_PERICENTER":150.2757,"MEAN_ANOMALY":209.8329,"EPHEMERIS_TYPE":0,"CLASSIFICATION_TYPE":"U","NORAD_CAT_ID":63441,"ELEMENT_SET_NO":999,"REV_AT_EPOCH":5066,"BSTAR":0.00089657465,"MEAN_MOTION_DOT":0.00026302,"MEAN_MOTION_DDOT":0},{"OBJECT_NAME":"STARLINK-33762","OBJECT_ID":"2025-069K","EPOCH":"2026-02-19T20:35:26.225952","MEAN_MOTION":15.30210693,"ECCENTRICITY":9.872e-5,"INCLINATION":53.1582,"RA_OF_ASC_NODE":225.3723,"ARG_OF_PERICENTER":93.8387,"MEAN_ANOMALY":266.2726,"EPHEMERIS_TYPE":0,"CLASSIFICATION_TYPE":"U","NORAD_CAT_ID":63442,"ELEMENT_SET_NO":999,"REV_AT_EPOCH":5067,"BSTAR":0.0010824078,"MEAN_MOTION_DOT":0.00031847,"MEAN_MOTION_DDOT":0},{"OBJECT_NAME":"STARLINK-33753","OBJECT_ID":"2025-069L","EPOCH":"2026-02-19T21:54:17.832960","MEAN_MOTION":15.30201451,"ECCENTRICITY":0.00011582,"INCLINATION":53.1568,"RA_OF_ASC_NODE":225.0042,"ARG_OF_PERICENTER":74.8395,"MEAN_ANOMALY":285.2734,"EPHEMERIS_TYPE":0,"CLASSIFICATION_TYPE":"U","NORAD_CAT_ID":63443,"ELEMENT_SET_NO":999,"REV_AT_EPOCH":5067,"BSTAR":0.00098060179,"MEAN_MOTION_DOT":0.00028797,"MEAN_MOTION_DDOT":0},{"OBJECT_NAME":"STARLINK-33747","OBJECT_ID":"2025-069M","EPOCH":"2026-02-19T18:37:05.468736","MEAN_MOTION":15.30149372,"ECCENTRICITY":0.00014395,"INCLINATION":53.1575,"RA_OF_ASC_NODE":225.5697,"ARG_OF_PERICENTER":137.8575,"MEAN_ANOMALY":222.2537,"EPHEMERIS_TYPE":0,"CLASSIFICATION_TYPE":"U","NORAD_CAT_ID":63444,"ELEMENT_SET_NO":999,"REV_AT_EPOCH":5061,"BSTAR":0.0010454028,"MEAN_MOTION_DOT":0.00030682,"MEAN_MOTION_DDOT":0}]
